[{"OBJECT_NAME":"STARLINK-5512","OBJECT_ID":"2023-094AQ","EPOCH":"2025-09-27T03:45:22.942656","MEAN_MOTION":15.02532273,"ECCENTRICITY":0.0001455,"INCLINATION":43.0038,"RA_OF_ASC_NODE":185.6496,"ARG_OF_PERICENTER":264.232,"MEAN_ANOMALY":95.8357,"EPHEMERIS_TYPE":0,"CLASSIFICATION_TYPE":"U","NORAD_CAT_ID":57256,"ELEMENT_SET_NO":999,"REV_AT_EPOCH":12267,"BSTAR":3.6565407e-5,"MEAN_MOTION_DOT":2.9e-6,"MEAN_MOTION_DDOT":0},{"OBJECT_NAME":"STARLINK-5503","OBJECT_ID":"2023-094AR","EPOCH":"2025-09-28T02:43:55.935840","MEAN_MOTION":15.02527121,"ECCENTRICITY":0.00013308,"INCLINATION":43.0035,"RA_OF_ASC_NODE":180.7737,"ARG_OF_PERICENTER":288.8241,"MEAN_ANOMALY":71.2457,"EPHEMERIS_TYPE":0,"CLASSIFICATION_TYPE":"U","NORAD_CAT_ID":57257,"ELEMENT_SET_NO":999,"REV_AT_EPOCH":12347,"BSTAR":-7.1750894e-5,"MEAN_MOTION_DOT":-1.172e-5,"MEAN_MOTION_DDOT":0},{"OBJECT_NAME":"STARLINK-5476","OBJECT_ID":"2023-094AS","EPOCH":"2025-09-28T02:26:21.083424","MEAN_MOTION":15.0251781,"ECCENTRICITY":0.00010926,"INCLINATION":43.0022,"RA_OF_ASC_NODE":180.6829,"ARG_OF_PERICENTER":267.7958,"MEAN_ANOMALY":92.2759,"EPHEMERIS_TYPE":0,"CLASSIFICATION_TYPE":"U","NORAD_CAT_ID":57258,"ELEMENT_SET_NO":999,"REV_AT_EPOCH":12281,"BSTAR":0.0002667833,"MEAN_MOTION_DOT":3.4e-5,"MEAN_MOTION_DDOT":0},{"OBJECT_NAME":"STARLINK-5026","OBJECT_ID":"2023-094AU","EPOCH":"2025-09-28T02:16:45.473664","MEAN_MOTION":15.02534831,"ECCENTRICITY":0.00013703,"INCLINATION":43.0025,"RA_OF_ASC_NODE":180.6323,"ARG_OF_PERICENTER":261.2711,"MEAN_ANOMALY":98.7976,"EPHEMERIS_TYPE":0,"CLASSIFICATION_TYPE":"U","NORAD_CAT_ID":57260,"ELEMENT_SET_NO":999,"REV_AT_EPOCH":12345,"BSTAR":6.5953984e-5,"MEAN_MOTION_DOT":6.87e-6,"MEAN_MOTION_DDOT":0},{"OBJECT_NAME":"STARLINK-5485","OBJECT_ID":"2023-094AV","EPOCH":"2025-09-27T19:53:28.560192","MEAN_MOTION":15.02517407,"ECCENTRICITY":0.00013345,"INCLINATION":43.0051,"RA_OF_ASC_NODE":195.0828,"ARG_OF_PERICENTER":263.4643,"MEAN_ANOMALY":96.6047,"EPHEMERIS_TYPE":0,"CLASSIFICATION_TYPE":"U","NORAD_CAT_ID":57261,"ELEMENT_SET_NO":999,"REV_AT_EPOCH":12262,"BSTAR":0.00028983391,"MEAN_MOTION_DOT":3.712e-5,"MEAN_MOTION_DDOT":0},{"OBJECT_NAME":"STARLINK-5504","OBJECT_ID":"2023-094AW","EPOCH":"2025-09-28T02:29:32.540640","MEAN_MOTION":15.02536688,"ECCENTRICITY":0.00011999,"INCLINATION":43.0037,"RA_OF_ASC_NODE":180.6993,"ARG_OF_PERICENTER":261.0934,"MEAN_ANOMALY":98.9773,"EPHEMERIS_TYPE":0,"CLASSIFICATION_TYPE":"U","NORAD_CAT_ID":57262,"ELEMENT_SET_NO":999,"REV_AT_EPOCH":12281,"BSTAR":6.2744712e-5,"MEAN_MOTION_DOT":6.44e-6,"MEAN_MOTION_DDOT":0},{"OBJECT_NAME":"STARLINK-5509","OBJECT_ID":"2023-094AX","EPOCH":"2025-09-27T19:51:52.724448","MEAN_MOTION":15.02537019,"ECCENTRICITY":8.301e-5,"INCLINATION":43.0016,"RA_OF_ASC_NODE":195.0742,"ARG_OF_PERICENTER":275.9718,"MEAN_ANOMALY":84.103,"EPHEMERIS_TYPE":0,"CLASSIFICATION_TYPE":"U","NORAD_CAT_ID":57263,"ELEMENT_SET_NO":999,"REV_AT_EPOCH":12262,"BSTAR":5.9889243e-5,"MEAN_MOTION_DOT":6.06e-6,"MEAN_MOTION_DDOT":0},{"OBJECT_NAME":"STARLINK-5858","OBJECT_ID":"2023-094AY","EPOCH":"2025-09-28T00:34:38.400384","MEAN_MOTION":15.02533597,"ECCENTRICITY":0.00014067,"INCLINATION":43.0032,"RA_OF_ASC_NODE":180.9599,"ARG_OF_PERICENTER":262.3459,"MEAN_ANOMALY":97.7223,"EPHEMERIS_TYPE":0,"CLASSIFICATION_TYPE":"U","NORAD_CAT_ID":57264,"ELEMENT_SET_NO":999,"REV_AT_EPOCH":12280,"BSTAR":2.724501e-6,"MEAN_MOTION_DOT":-1.67e-6,"MEAN_MOTION_DDOT":0},{"OBJECT_NAME":"STARLINK-5890","OBJECT_ID":"2023-094AZ","EPOCH":"2025-09-27T03:46:59.149056","MEAN_MOTION":15.02513308,"ECCENTRICITY":3.977e-5,"INCLINATION":42.9981,"RA_OF_ASC_NODE":185.6417,"ARG_OF_PERICENTER":307.9004,"MEAN_ANOMALY":52.1802,"EPHEMERIS_TYPE":0,"CLASSIFICATION_TYPE":"U","NORAD_CAT_ID":57265,"ELEMENT_SET_NO":999,"REV_AT_EPOCH":12267,"BSTAR":0.00029933845,"MEAN_MOTION_DOT":3.84e-5,"MEAN_MOTION_DDOT":0},{"OBJECT_NAME":"STARLINK-30198","OBJECT_ID":"2023-096A","EPOCH":"2025-09-27T16:34:33.924288","MEAN_MOTION":15.02528372,"ECCENTRICITY":9.598e-5,"INCLINATION":43.0036,"RA_OF_ASC_NODE":29.2381,"ARG_OF_PERICENTER":272.43,"MEAN_ANOMALY":87.6432,"EPHEMERIS_TYPE":0,"CLASSIFICATION_TYPE":"U","NORAD_CAT_ID":57290,"ELEMENT_SET_NO":999,"REV_AT_EPOCH":12309,"BSTAR":-6.1091887e-5,"MEAN_MOTION_DOT":-1.028e-5,"MEAN_MOTION_DDOT":0},{"OBJECT_NAME":"STARLINK-30239","OBJECT_ID":"2023-096B","EPOCH":"2025-09-27T16:29:45.014784","MEAN_MOTION":15.02536874,"ECCENTRICITY":0.00013743,"INCLINATION":43.0037,"RA_OF_ASC_NODE":29.2131,"ARG_OF_PERICENTER":263.055,"MEAN_ANOMALY":97.0136,"EPHEMERIS_TYPE":0,"CLASSIFICATION_TYPE":"U","NORAD_CAT_ID":57291,"ELEMENT_SET_NO":999,"REV_AT_EPOCH":12309,"BSTAR":4.0147508e-5,"MEAN_MOTION_DOT":3.39e-6,"MEAN_MOTION_DDOT":0},{"OBJECT_NAME":"STARLINK-30210","OBJECT_ID":"2023-096C","EPOCH":"2025-09-27T15:29:24.965376","MEAN_MOTION":15.21939062,"ECCENTRICITY":0.00232125,"INCLINATION":42.9958,"RA_OF_ASC_NODE":13.6186,"ARG_OF_PERICENTER":344.4533,"MEAN_ANOMALY":15.5601,"EPHEMERIS_TYPE":0,"CLASSIFICATION_TYPE":"U","NORAD_CAT_ID":57292,"ELEMENT_SET_NO":999,"REV_AT_EPOCH":12315,"BSTAR":0.0043395399,"MEAN_MOTION_DOT":0.00102717,"MEAN_MOTION_DDOT":0},{"OBJECT_NAME":"STARLINK-30235","OBJECT_ID":"2023-096E","EPOCH":"2025-09-27T17:51:05.056992","MEAN_MOTION":15.02531531,"ECCENTRICITY":0.00017337,"INCLINATION":43.0073,"RA_OF_ASC_NODE":28.7793,"ARG_OF_PERICENTER":281.5702,"MEAN_ANOMALY":78.4945,"EPHEMERIS_TYPE":0,"CLASSIFICATION_TYPE":"U","NORAD_CAT_ID":57294,"ELEMENT_SET_NO":999,"REV_AT_EPOCH":12310,"BSTAR":-9.421183e-5,"MEAN_MOTION_DOT":-1.476e-5,"MEAN_MOTION_DDOT":0},{"OBJECT_NAME":"STARLINK-30238","OBJECT_ID":"2023-096G","EPOCH":"2025-09-27T14:24:43.378848","MEAN_MOTION":15.22036997,"ECCENTRICITY":0.00214315,"INCLINATION":42.996,"RA_OF_ASC_NODE":13.3014,"ARG_OF_PERICENTER":346.0089,"MEAN_ANOMALY":14.0165,"EPHEMERIS_TYPE":0,"CLASSIFICATION_TYPE":"U","NORAD_CAT_ID":57296,"ELEMENT_SET_NO":999,"REV_AT_EPOCH":12329,"BSTAR":0.0042518756,"MEAN_MOTION_DOT":0.00100796,"MEAN_MOTION_DDOT":0},{"OBJECT_NAME":"STARLINK-30234","OBJECT_ID":"2023-096H","EPOCH":"2025-09-28T06:00:02.999808","MEAN_MOTION":15.52311789,"ECCENTRICITY":0.00351603,"INCLINATION":42.9889,"RA_OF_ASC_NODE":337.562,"ARG_OF_PERICENTER":34.0959,"MEAN_ANOMALY":134.74,"EPHEMERIS_TYPE":0,"CLASSIFICATION_TYPE":"U","NORAD_CAT_ID":57297,"ELEMENT_SET_NO":999,"REV_AT_EPOCH":584,"BSTAR":0.0066641897,"MEAN_MOTION_DOT":0.00450389,"MEAN_MOTION_DDOT":0},{"OBJECT_NAME":"STARLINK-30241","OBJECT_ID":"2023-096J","EPOCH":"2025-09-28T06:58:01.669440","MEAN_MOTION":15.25173525,"ECCENTRICITY":0.00222088,"INCLINATION":42.9946,"RA_OF_ASC_NODE":5.5669,"ARG_OF_PERICENTER":358.0781,"MEAN_ANOMALY":1.9981,"EPHEMERIS_TYPE":0,"CLASSIFICATION_TYPE":"U","NORAD_CAT_ID":57298,"ELEMENT_SET_NO":999,"REV_AT_EPOCH":12342,"BSTAR":0.0051623448,"MEAN_MOTION_DOT":0.00135137,"MEAN_MOTION_DDOT":0},{"OBJECT_NAME":"STARLINK-30236","OBJECT_ID":"2023-096L","EPOCH":"2025-09-27T15:56:10.154688","MEAN_MOTION":15.02569172,"ECCENTRICITY":0.00010944,"INCLINATION":43.0035,"RA_OF_ASC_NODE":29.0329,"ARG_OF_PERICENTER":261.5459,"MEAN_ANOMALY":98.5259,"EPHEMERIS_TYPE":0,"CLASSIFICATION_TYPE":"U","NORAD_CAT_ID":57300,"ELEMENT_SET_NO":999,"REV_AT_EPOCH":12313,"BSTAR":-0.00024770615,"MEAN_MOTION_DOT":-3.551e-5,"MEAN_MOTION_DDOT":0},{"OBJECT_NAME":"STARLINK-30201","OBJECT_ID":"2023-096M","EPOCH":"2025-09-27T15:51:23.429376","MEAN_MOTION":15.02535695,"ECCENTRICITY":0.00015312,"INCLINATION":43.0032,"RA_OF_ASC_NODE":29.0131,"ARG_OF_PERICENTER":273.216,"MEAN_ANOMALY":86.8507,"EPHEMERIS_TYPE":0,"CLASSIFICATION_TYPE":"U","NORAD_CAT_ID":57301,"ELEMENT_SET_NO":999,"REV_AT_EPOCH":12219,"BSTAR":-7.0252762e-5,"MEAN_MOTION_DOT":-1.153e-5,"MEAN_MOTION_DDOT":0},{"OBJECT_NAME":"STARLINK-30233","OBJECT_ID":"2023-096N","EPOCH":"2025-09-27T15:46:35.354496","MEAN_MOTION":15.0253506,"ECCENTRICITY":0.00012637,"INCLINATION":43.0044,"RA_OF_ASC_NODE":28.9645,"ARG_OF_PERICENTER":267.8367,"MEAN_ANOMALY":92.2331,"EPHEMERIS_TYPE":0,"CLASSIFICATION_TYPE":"U","NORAD_CAT_ID":57302,"ELEMENT_SET_NO":999,"REV_AT_EPOCH":12219,"BSTAR":2.8765565e-5,"MEAN_MOTION_DOT":1.85e-6,"MEAN_MOTION_DDOT":0},{"OBJECT_NAME":"STARLINK-30232","OBJECT_ID":"2023-096P","EPOCH":"2025-09-27T16:19:21.291456","MEAN_MOTION":15.21643745,"ECCENTRICITY":0.00208523,"INCLINATION":42.9965,"RA_OF_ASC_NODE":13.0348,"ARG_OF_PERICENTER":348.7442,"MEAN_ANOMALY":11.2939,"EPHEMERIS_TYPE":0,"CLASSIFICATION_TYPE":"U","NORAD_CAT_ID":57303,"ELEMENT_SET_NO":999,"REV_AT_EPOCH":12314,"BSTAR":0.0043075269,"MEAN_MOTION_DOT":0.00100906,"MEAN_MOTION_DDOT":0},{"OBJECT_NAME":"STARLINK-30177","OBJECT_ID":"2023-096R","EPOCH":"2025-09-28T06:39:27.688320","MEAN_MOTION":15.22465246,"ECCENTRICITY":0.0021529,"INCLINATION":42.9972,"RA_OF_ASC_NODE":8.91,"ARG_OF_PERICENTER":351.1316,"MEAN_ANOMALY":8.915,"EPHEMERIS_TYPE":0,"CLASSIFICATION_TYPE":"U","NORAD_CAT_ID":57305,"ELEMENT_SET_NO":999,"REV_AT_EPOCH":12248,"BSTAR":0.0053421463,"MEAN_MOTION_DOT":0.00128812,"MEAN_MOTION_DDOT":0},{"OBJECT_NAME":"STARLINK-30200","OBJECT_ID":"2023-096S","EPOCH":"2025-09-28T06:00:02.999808","MEAN_MOTION":15.24732319,"ECCENTRICITY":0.00218322,"INCLINATION":42.9949,"RA_OF_ASC_NODE":6.0582,"ARG_OF_PERICENTER":357.6742,"MEAN_ANOMALY":41.9282,"EPHEMERIS_TYPE":0,"CLASSIFICATION_TYPE":"U","NORAD_CAT_ID":57306,"ELEMENT_SET_NO":999,"REV_AT_EPOCH":584,"BSTAR":0.0055207752,"MEAN_MOTION_DOT":0.00142742,"MEAN_MOTION_DDOT":0},{"OBJECT_NAME":"STARLINK-30209","OBJECT_ID":"2023-096T","EPOCH":"2025-09-28T00:00:02.999808","MEAN_MOTION":15.22063661,"ECCENTRICITY":0.0020758,"INCLINATION":42.9976,"RA_OF_ASC_NODE":10.7247,"ARG_OF_PERICENTER":351.7113,"MEAN_ANOMALY":172.0838,"EPHEMERIS_TYPE":0,"CLASSIFICATION_TYPE":"U","NORAD_CAT_ID":57307,"ELEMENT_SET_NO":999,"REV_AT_EPOCH":584,"BSTAR":0.0025833697,"MEAN_MOTION_DOT":0.00060842,"MEAN_MOTION_DDOT":0}]
